{
  "type": "FeatureCollection",
  "features": [
    {
      "type": "Feature",
      "properties": {
        "norad_id": 35915,
        "name": "IRIDIUM 33 DEB",
        "group": "iridium-33-debris",
        "lat": -70.38989368060818,
        "lon": 176.0188951065459,
        "alt_km": 629.8751935033051,
        "timestamp": "2025-12-06T18:50:10.554842+00:00",
        "meta_object_name": "IRIDIUM 33 DEB",
        "meta_object_id": "1997-051TY",
        "meta_epoch": "2025-12-03T18:19:42.417696",
        "meta_mean_motion": 14.80347774,
        "meta_eccentricity": 0.00098177,
        "meta_inclination": 86.3435,
        "meta_ra_of_asc_node": 347.0587,
        "meta_arg_of_pericenter": 222.269,
        "meta_mean_anomaly": 137.7775,
        "meta_ephemeris_type": 0,
        "meta_classification_type": "U",
        "meta_norad_cat_id": 35915,
        "meta_element_set_no": 999,
        "meta_rev_at_epoch": 7953,
        "meta_bstar": 0.002591589,
        "meta_mean_motion_dot": 0.00019836,
        "meta_mean_motion_ddot": 0,
        "tle_line1": "1 35915U 97051TY  25337.76368539  .00019836  00000+0  25916-2 0  9993",
        "tle_line2": "2 35915  86.3435 347.0587 0009817 222.2690 137.7775 14.80347774 79532"
      },
      "geometry": {
        "type": "Point",
        "coordinates": [
          176.0188951065459,
          -70.38989368060818
        ]
      }
    },
    {
      "type": "Feature",
      "properties": {
        "norad_id": 35918,
        "name": "IRIDIUM 33 DEB",
        "group": "iridium-33-debris",
        "lat": -44.647500575755984,
        "lon": 74.80527144992959,
        "alt_km": 739.8811739626672,
        "timestamp": "2025-12-06T18:50:10.554853+00:00",
        "meta_object_name": "IRIDIUM 33 DEB",
        "meta_object_id": "1997-051UB",
        "meta_epoch": "2025-11-30T01:41:55.281408",
        "meta_mean_motion": 14.51050885,
        "meta_eccentricity": 0.00264066,
        "meta_inclination": 86.4001,
        "meta_ra_of_asc_node": 81.2516,
        "meta_arg_of_pericenter": 211.3482,
        "meta_mean_anomaly": 332.4953,
        "meta_ephemeris_type": 0,
        "meta_classification_type": "U",
        "meta_norad_cat_id": 35918,
        "meta_element_set_no": 999,
        "meta_rev_at_epoch": 85023,
        "meta_bstar": 0.0014523463,
        "meta_mean_motion_dot": 5.795e-05,
        "meta_mean_motion_ddot": 0,
        "tle_line1": "1 35918U 97051UB  25334.07077872  .00005795  00000+0  14523-2 0  9995",
        "tle_line2": "2 35918  86.4001  81.2516 0026406 211.3482 332.4953 14.51050885850233"
      },
      "geometry": {
        "type": "Point",
        "coordinates": [
          74.80527144992959,
          -44.647500575755984
        ]
      }
    },
    {
      "type": "Feature",
      "properties": {
        "norad_id": 35929,
        "name": "IRIDIUM 33 DEB",
        "group": "iridium-33-debris",
        "lat": 55.555576002211964,
        "lon": -39.182183842688026,
        "alt_km": 543.159929352315,
        "timestamp": "2025-12-06T18:50:10.554864+00:00",
        "meta_object_name": "IRIDIUM 33 DEB",
        "meta_object_id": "1997-051UN",
        "meta_epoch": "2025-12-02T05:49:26.497920",
        "meta_mean_motion": 15.01302222,
        "meta_eccentricity": 0.0019551,
        "meta_inclination": 86.3366,
        "meta_ra_of_asc_node": 317.6054,
        "meta_arg_of_pericenter": 65.7136,
        "meta_mean_anomaly": 294.6136,
        "meta_ephemeris_type": 0,
        "meta_classification_type": "U",
        "meta_norad_cat_id": 35929,
        "meta_element_set_no": 999,
        "meta_rev_at_epoch": 87622,
        "meta_bstar": 0.0029859,
        "meta_mean_motion_dot": 0.00038744,
        "meta_mean_motion_ddot": 0,
        "tle_line1": "1 35929U 97051UN  25336.24266780  .00038744  00000+0  29859-2 0  9994",
        "tle_line2": "2 35929  86.3366 317.6054 0019551  65.7136 294.6136 15.01302222876221"
      },
      "geometry": {
        "type": "Point",
        "coordinates": [
          -39.182183842688026,
          55.555576002211964
        ]
      }
    },
    {
      "type": "Feature",
      "properties": {
        "norad_id": 36011,
        "name": "IRIDIUM 33 DEB",
        "group": "iridium-33-debris",
        "lat": -37.0032341796651,
        "lon": -139.25321860213015,
        "alt_km": 749.6991912333333,
        "timestamp": "2025-12-06T18:50:10.554873+00:00",
        "meta_object_name": "IRIDIUM 33 DEB",
        "meta_object_id": "1997-051US",
        "meta_epoch": "2025-11-27T22:48:02.153088",
        "meta_mean_motion": 14.41259363,
        "meta_eccentricity": 0.0016688,
        "meta_inclination": 86.3418,
        "meta_ra_of_asc_node": 41.7752,
        "meta_arg_of_pericenter": 268.8947,
        "meta_mean_anomaly": 217.0188,
        "meta_ephemeris_type": 0,
        "meta_classification_type": "U",
        "meta_norad_cat_id": 36011,
        "meta_element_set_no": 999,
        "meta_rev_at_epoch": 64327,
        "meta_bstar": 0.00058853,
        "meta_mean_motion_dot": 1.923e-05,
        "meta_mean_motion_ddot": 0,
        "tle_line1": "1 36011U 97051US  25331.95002492  .00001923  00000+0  58853-3 0  9994",
        "tle_line2": "2 36011  86.3418  41.7752 0016688 268.8947 217.0188 14.41259363643279"
      },
      "geometry": {
        "type": "Point",
        "coordinates": [
          -139.25321860213015,
          -37.0032341796651
        ]
      }
    },
    {
      "type": "Feature",
      "properties": {
        "norad_id": 36012,
        "name": "IRIDIUM 33 DEB",
        "group": "iridium-33-debris",
        "lat": -81.19382773577911,
        "lon": 153.59870960160447,
        "alt_km": 692.9368009236887,
        "timestamp": "2025-12-06T18:50:10.554884+00:00",
        "meta_object_name": "IRIDIUM 33 DEB",
        "meta_object_id": "1997-051UT",
        "meta_epoch": "2025-12-06T04:02:53.038752",
        "meta_mean_motion": 14.18666574,
        "meta_eccentricity": 0.02131994,
        "meta_inclination": 86.4443,
        "meta_ra_of_asc_node": 310.1835,
        "meta_arg_of_pericenter": 284.453,
        "meta_mean_anomaly": 73.3086,
        "meta_ephemeris_type": 0,
        "meta_classification_type": "U",
        "meta_norad_cat_id": 36012,
        "meta_element_set_no": 999,
        "meta_rev_at_epoch": 65391,
        "meta_bstar": 0.011047902,
        "meta_mean_motion_dot": 0.0002881,
        "meta_mean_motion_ddot": 0,
        "tle_line1": "1 36012U 97051UT  25340.16866943  .00028810  00000+0  11048-1 0  9994",
        "tle_line2": "2 36012  86.4443 310.1835 0213199 284.4530  73.3086 14.18666574653914"
      },
      "geometry": {
        "type": "Point",
        "coordinates": [
          153.59870960160447,
          -81.19382773577911
        ]
      }
    },
    {
      "type": "Feature",
      "properties": {
        "norad_id": 36028,
        "name": "IRIDIUM 33 DEB",
        "group": "iridium-33-debris",
        "lat": 26.53554931446559,
        "lon": 127.6570225509668,
        "alt_km": 581.0841431400113,
        "timestamp": "2025-12-06T18:50:10.554894+00:00",
        "meta_object_name": "IRIDIUM 33 DEB",
        "meta_object_id": "1997-051VK",
        "meta_epoch": "2025-12-02T04:53:22.244352",
        "meta_mean_motion": 14.94476089,
        "meta_eccentricity": 0.0022096,
        "meta_inclination": 86.3209,
        "meta_ra_of_asc_node": 311.6506,
        "meta_arg_of_pericenter": 84.2868,
        "meta_mean_anomaly": 276.0879,
        "meta_ephemeris_type": 0,
        "meta_classification_type": "U",
        "meta_norad_cat_id": 36028,
        "meta_element_set_no": 999,
        "meta_rev_at_epoch": 86967,
        "meta_bstar": 0.0026794,
        "meta_mean_motion_dot": 0.00029149,
        "meta_mean_motion_ddot": 0,
        "tle_line1": "1 36028U 97051VK  25336.20372968  .00029149  00000+0  26794-2 0  9991",
        "tle_line2": "2 36028  86.3209 311.6506 0022096  84.2868 276.0879 14.94476089869673"
      },
      "geometry": {
        "type": "Point",
        "coordinates": [
          127.6570225509668,
          26.53554931446559
        ]
      }
    },
    {
      "type": "Feature",
      "properties": {
        "norad_id": 36080,
        "name": "IRIDIUM 33 DEB",
        "group": "iridium-33-debris",
        "lat": -29.938090829981952,
        "lon": 8.458921618904917,
        "alt_km": 754.0028993261003,
        "timestamp": "2025-12-06T18:50:10.554904+00:00",
        "meta_object_name": "IRIDIUM 33 DEB",
        "meta_object_id": "1997-051VM",
        "meta_epoch": "2025-12-04T08:52:09.343776",
        "meta_mean_motion": 14.46551411,
        "meta_eccentricity": 0.0017324,
        "meta_inclination": 86.3204,
        "meta_ra_of_asc_node": 11.6345,
        "meta_arg_of_pericenter": 183.7015,
        "meta_mean_anomaly": 176.4063,
        "meta_ephemeris_type": 0,
        "meta_classification_type": "U",
        "meta_norad_cat_id": 36080,
        "meta_element_set_no": 999,
        "meta_rev_at_epoch": 47293,
        "meta_bstar": 0.0013956,
        "meta_mean_motion_dot": 5.055e-05,
        "meta_mean_motion_ddot": 0,
        "tle_line1": "1 36080U 97051VM  25338.36955259  .00005055  00000+0  13956-2 0  9994",
        "tle_line2": "2 36080  86.3204  11.6345 0017324 183.7015 176.4063 14.46551411472938"
      },
      "geometry": {
        "type": "Point",
        "coordinates": [
          8.458921618904917,
          -29.938090829981952
        ]
      }
    }
  ]
}